IRIDIUM 155             
1 43573U 18061E   22135.57642101  .00000075  00000+0  19618-4 0  9997
2 43573  86.3934 320.8887 0002019  98.7238 261.4187 14.34218106199279
IRIDIUM 154             
1 43574U 18061F   22135.55739697  .00000054  00000+0  12324-4 0  9997
2 43574  86.3938 320.9587 0002074  81.9765 278.1666 14.34217117199326
IRIDIUM 163             
1 43575U 18061G   22135.53834545  .00000055  00000+0  12448-4 0  9992
2 43575  86.3935 320.9278 0002561  88.1090 272.0399 14.34219789199291
IRIDIUM 156             
1 43576U 18061H   22135.58276109  .00000054  00000+0  12357-4 0  9992
2 43576  86.3936 320.9146 0002383  95.4901 264.6567 14.34219597199292
IRIDIUM 164             
1 43577U 18061J   22135.56372355  .00000021  00000+0  56892-6 0  9999
2 43577  86.3936 320.9401 0002230  82.7818 277.3631 14.34217744199334
IRIDIUM 159             
1 43578U 18061K   22135.60177379  .00000105  00000+0  30599-4 0  9991
2 43578  86.3935 320.8922 0002137  83.8579 276.2861 14.34217905199302
IRIDIUM 180             
1 43922U 19002A   22135.39199943  .00000235  00000+0  76703-4 0  9998
2 43922  86.3970 257.8070 0002399  78.6357 281.5109 14.34215484174883
IRIDIUM 176             
1 43923U 19002B   22135.36466921  .00000702  00000+0  10737-3 0  9992
2 43923  86.6103 257.8530 0002370  98.1061 262.0425 14.72247567179467
IRIDIUM 168             
1 43924U 19002C   22135.38564725  .00000244  00000+0  80036-4 0  9997
2 43924  86.3972 257.8447 0002137  87.3860 272.7580 14.34216932174863
IRIDIUM 173             
1 43925U 19002D   22135.58223994  .00000134  00000+0  40838-4 0  9994
2 43925  86.3969 257.7119 0002232  90.8355 269.3097 14.34213762174873
IRIDIUM 169             
1 43926U 19002E   22135.47245654  .00000291  00000+0  88714-4 0  9999
2 43926  86.4188 289.3765 0003668 193.7859 166.3240 14.38607343175471
IRIDIUM 172             
1 43927U 19002F   22135.57593521  .00000264  00000+0  87290-4 0  9998
2 43927  86.3969 257.7185 0002237  87.1110 273.0342 14.34215793174883
IRIDIUM 175             
1 43928U 19002G   22135.42642924  .00000884  00000+0  13629-3 0  9997
2 43928  86.6108 257.6564 0002245  89.6174 270.5300 14.72247366179466
IRIDIUM 171             
1 43929U 19002H   22135.41736190  .00000237  00000+0  77669-4 0  9993
2 43929  86.3979 257.9252 0002113  88.5225 271.6213 14.34216223174855
IRIDIUM 170             
1 43930U 19002J   22135.37089687  .00000826  00000+0  12713-3 0  9994
2 43930  86.6105 257.8555 0002077  94.1474 265.9980 14.72249858179476
IRIDIUM 167             
1 43931U 19002K   22135.41102724  .00000242  00000+0  79478-4 0  9992
2 43931  86.3970 257.7965 0002236  81.6956 278.4493 14.34215820174856
